[{"OBJECT_NAME":"STARLINK-2493","OBJECT_ID":"2021-027BL","EPOCH":"2026-03-10T00:00:02.999808","MEAN_MOTION":15.12929872,"ECCENTRICITY":0.00012937,"INCLINATION":53.0812,"RA_OF_ASC_NODE":150.1407,"ARG_OF_PERICENTER":86.7276,"MEAN_ANOMALY":174.3969,"EPHEMERIS_TYPE":0,"CLASSIFICATION_TYPE":"U","NORAD_CAT_ID":48150,"ELEMENT_SET_NO":999,"REV_AT_EPOCH":559,"BSTAR":0.045406962,"MEAN_MOTION_DOT":0.00872289,"MEAN_MOTION_DDOT":0},{"OBJECT_NAME":"BRO-17","OBJECT_ID":"2025-276G","EPOCH":"2026-03-09T22:51:10.024704","MEAN_MOTION":15.17264745,"ECCENTRICITY":0.00064584,"INCLINATION":97.4258,"RA_OF_ASC_NODE":144.0221,"ARG_OF_PERICENTER":0.3846,"MEAN_ANOMALY":359.7392,"EPHEMERIS_TYPE":0,"CLASSIFICATION_TYPE":"U","NORAD_CAT_ID":66672,"ELEMENT_SET_NO":999,"REV_AT_EPOCH":1534,"BSTAR":0.00022162423,"MEAN_MOTION_DOT":4.348e-5,"MEAN_MOTION_DDOT":0}]
